STARLINK-5340           
1 56506U 23065D   23157.41112293  .00006099  00000+0  49909-4 0  9997
2 56506  42.9995 304.3417 0002022 274.7666  85.2971 15.71362882  4074
STARLINK-5333           
1 56507U 23065E   23156.64247696  .00006696  00000+0  54459-4 0  9997
2 56507  43.0018 308.8990 0002017 270.6133  89.4504 15.71358459  4743
STARLINK-5335           
1 56508U 23065F   23156.45737967  .00003158  00000+0  27516-4 0  9996
2 56508  42.9999 310.0904 0002107 269.9241  90.1386 15.71358453  4719
STARLINK-5334           
1 56509U 23065G   23156.45695744  .00004822  00000+0  40190-4 0  9995
2 56509  42.9995 310.0869 0001957 277.3084  82.7562 15.71361898  4716
STARLINK-5339           
1 56510U 23065H   23157.28347610  .00034532  00000+0  26542-3 0  9990
2 56510  42.9996 305.1053 0002059 280.6527  79.4109 15.71378461  4053
STARLINK-5351           
1 56511U 23065J   23156.45674701  .00014551  00000+0  11412-3 0  9992
2 56511  42.9999 310.0861 0003032 253.8156 106.2379 15.71372730  4715
STARLINK-5349           
1 56512U 23065K   23156.45706547 -.00000721  00000+0 -20468-5 0  9996
2 56512  42.9996 310.0879 0001797 274.8061  85.2602 15.71354388  4710
STARLINK-5329           
1 56513U 23065L   23156.45653971  .00001670  00000+0  16175-4 0  9990
2 56513  42.9990 310.0851 0001721 283.1820  76.8856 15.71358305  4718
STARLINK-5343           
1 56514U 23065M   23156.81463607  .00076468  00000+0  54458-3 0  9998
2 56514  43.0024 307.5983 0003190 304.4391  55.6176 15.72887331  3983
STARLINK-5348           
1 56515U 23065N   23156.45643471  .00007176  00000+0  58098-4 0  9993
2 56515  42.9991 310.0841 0001535 285.1497  74.9201 15.71364254  4718
STARLINK-5342           
1 56516U 23065P   23157.00001157 -.00001177  00000+0 -55223-5 0  9990
2 56516  43.0000 306.8075 0001990 266.7875 290.7787 15.71361635  4014
STARLINK-5345           
1 56517U 23065Q   23156.45611889  .00000903  00000+0  10332-4 0  9993
2 56517  42.9991 310.0813 0002011 272.1264  87.9373 15.71355048  4712
STARLINK-5346           
1 56518U 23065R   23156.45632714  .00002058  00000+0  19136-4 0  9998
2 56518  42.9996 310.0822 0001649 267.4604  92.6075 15.71357222  4717
STARLINK-6313           
1 56519U 23065S   23157.28221349  .00013174  00000+0  10369-3 0  9998
2 56519  42.9996 305.0945 0001772 280.9011  79.1657 15.71368368  4053
STARLINK-6344           
1 56520U 23065T   23157.28252895  .00012500  00000+0  98581-4 0  9995
2 56520  42.9996 305.0973 0001999 276.1616  83.9024 15.71365778  4058
STARLINK-6333           
1 56521U 23065U   23156.77350917  .00006828  00000+0  55473-4 0  9992
2 56521  42.9998 308.1605 0001856 262.0788  97.9870 15.71354207  3972
STARLINK-6327           
1 56522U 23065V   23156.45601247 -.00000140  00000+0  23846-5 0  9995
2 56522  42.9998 310.0789 0002058 268.0973  91.9659 15.71355732  4711
STARLINK-6328           
1 56523U 23065W   23156.45548806  .00000880  00000+0  10157-4 0  9997
2 56523  42.9998 310.0772 0001504 276.7212  83.3484 15.71359956  3926
STARLINK-6323           
1 56524U 23065X   23156.45580261  .00004291  00000+0  36149-4 0  9998
2 56524  42.9994 310.0794 0002019 270.1859  89.8778 15.71356068  4710
STARLINK-6329           
1 56525U 23065Y   23156.45527619  .00003419  00000+0  29509-4 0  9990
2 56525  42.9995 310.0747 0002095 268.7560  91.3068 15.71358994  3928
STARLINK-6317           
1 56526U 23065Z   23156.45559218  .00002417  00000+0  21872-4 0  9993
2 56526  43.0000 310.0767 0001922 270.3733  89.6915 15.71361198  4718
STARLINK-6335           
1 56527U 23065AA  23156.45517284  .00000817  00000+0  96759-5 0  9990
2 56527  42.9992 310.0737 0001799 270.3336  89.7326 15.71356151  4715
STARLINK-6337           
1 56528U 23065AB  23157.28168875  .00000783  00000+0  94161-5 0  9998
2 56528  42.9989 305.0922 0001652 275.4677  84.6002 15.71357838  4059
STARLINK-6307           
1 56529U 23065AC  23157.28105841  .00002236  00000+0  20491-4 0  9992
2 56529  42.9993 305.0866 0001834 274.8769  85.1889 15.71354883  4055
STARLINK-6318           
1 56530U 23065AD  23157.40849675  .00001802  00000+0  17181-4 0  9998
2 56530  42.9988 304.3211 0001664 285.5936  74.4748 15.71356751  4076
STARLINK-6280           
1 56531U 23065AE  23157.28095128  .00016067  00000+0  12564-3 0  9999
2 56531  42.9994 305.0847 0001751 274.2463  85.8205 15.71371993  4051
STARLINK-6319           
1 56532U 23065AF  23157.28126765  .00021843  00000+0  16949-3 0  9991
2 56532  42.9993 305.0875 0002096 275.5775  84.4854 15.71367158  4058
STARLINK-6310           
1 56533U 23065AG  23156.45453943  .00007855  00000+0  63266-4 0  9993
2 56533  42.9992 310.0689 0002059 271.4152  88.6480 15.71364494  4714
STARLINK-6308           
1 56534U 23065AH  23157.40828470  .00015397  00000+0  12058-3 0  9993
2 56534  43.0006 304.3202 0002430 265.7566  94.3025 15.71366894  4072
STARLINK-6309           
1 56535U 23065AJ  23157.00001157 -.00964740  00000+0 -13172-1 0  9998
2 56535  42.9994 307.1055 0001537 277.8707 159.6669 15.59350719  1309
STARLINK-6312           
1 56536U 23065AK  23157.25001157 -.00852665  00000+0 -11755-1 0  9993
2 56536  42.9996 305.6243 0001585 270.4053 131.2784 15.58781988  4054
STARLINK-6311           
1 56537U 23065AL  23157.58334491 -.00920425  00000+0 -13077-1 0  9999
2 56537  42.9990 303.6518 0001294 274.9566 200.6339 15.58186404  4102
STARLINK-6314           
1 56538U 23065AM  23156.77224705  .00007099  00000+0  57529-4 0  9990
2 56538  42.9997 308.1502 0001840 270.0487  90.0170 15.71359365  4768
STARLINK-6135           
1 56539U 23065AN  23157.58334491 -.00919840  00000+0 -13065-1 0  9997
2 56539  42.9991 303.6500 0001293 280.3159 196.0153 15.58192149  4109
STARLINK-6136           
1 56540U 23065AP  23157.58334491 -.00920696  00000+0 -13090-1 0  9998
2 56540  42.9989 303.6567 0001310 273.3707 199.9970 15.58168660  4102
STARLINK-6249           
1 56541U 23065AQ  23157.25001157 -.00853348  00000+0 -11749-1 0  9991
2 56541  42.9994 305.6145 0001592 275.7820 130.3032 15.58818173  4050
STARLINK-6266           
1 56542U 23065AR  23157.58334491 -.00920166  00000+0 -13067-1 0  9996
2 56542  42.9989 303.6476 0001310 278.0536 199.0184 15.58198241  4101
STARLINK-6228           
1 56543U 23065AS  23157.58334491 -.00922320  00000+0 -13088-1 0  9994
2 56543  42.9987 303.6406 0001297 276.4525 203.5811 15.58223717  4102
STARLINK-6226           
1 56544U 23065AT  23157.58334491 -.00919896  00000+0 -13060-1 0  9999
2 56544  42.9992 303.6461 0001300 273.9395 203.8734 15.58203929  4102
STARLINK-6086           
1 56545U 23065AU  23157.58334491 -.00919756  00000+0 -13043-1 0  9996
2 56545  42.9991 303.6377 0001301 277.4178 204.0974 15.58233739  4108
STARLINK-6187           
1 56546U 23065AV  23157.00001157 -.00964741  00000+0 -13154-1 0  9991
2 56546  42.9993 307.0944 0001532 278.5646 163.3421 15.59386364  1304
STARLINK-6291           
1 56547U 23065AW  23157.58334491 -.00921129  00000+0 -13058-1 0  9991
2 56547  42.9988 303.6338 0001290 278.0045 204.9906 15.58246735  4104
STARLINK-6244           
1 56548U 23065AX  23157.58334491 -.00921930  00000+0 -13079-1 0  9995
2 56548  42.9991 303.6386 0001312 278.7493 202.0247 15.58229453  4106
STARLINK-6263           
1 56549U 23065AY  23157.58334491 -.00920009  00000+0 -13035-1 0  9994
2 56549  42.9989 303.6302 0001299 277.8531 206.6226 15.58257800  4103
STARLINK-6255           
1 56550U 23065AZ  23157.58334491 -.00921396  00000+0 -13065-1 0  9999
2 56550  42.9990 303.6355 0001292 278.9888 203.2660 15.58240990  4102
STARLINK-6199           
1 56551U 23065BA  23157.58334491 -.00919018  00000+0 -13014-1 0  9992
2 56551  42.9989 303.6263 0001274 277.2890 208.6666 15.58269211  4106
STARLINK-5802           
1 56552U 23065BB  23157.58334491 -.00922313  00000+0 -13073-1 0  9990
2 56552  42.9990 303.6311 0001317 280.2345 203.5006 15.58253459  4109
STARLINK-6074           
1 56553U 23065BC  23157.25001157 -.00845464  00000+0 -11604-1 0  9994
2 56553  42.9994 305.5947 0001501 270.1970 143.9521 15.58878791  4052
STARLINK-6295           
1 56554U 23065BD  23157.58334491 -.00922633  00000+0 -13072-1 0  9996
2 56554  42.9992 303.6285 0001314 278.6296 206.5858 15.58265538  4105
STARLINK-6252           
1 56555U 23065BE  23157.58334491 -.00920056  00000+0 -13021-1 0  9998
2 56555  42.9988 303.6213 0001291 275.5278 212.6475 15.58287562  4106
STARLINK-5302           
1 56556U 23065BF  23157.58334491 -.00923556  00000+0 -13077-1 0  9998
2 56556  42.9992 303.6227 0001307 280.2541 207.1803 15.58284438  4104
STARLINK-6265           
1 56557U 23065BG  23157.00001157 -.00964874  00000+0 -13117-1 0  9999
2 56557  42.9991 307.0718 0001510 278.1568 173.2080 15.59463771  1307
STARLINK-6286           
1 56558U 23065BH  23157.58334491 -.00919722  00000+0 -13010-1 0  9997
2 56558  42.9988 303.6171 0001279 272.9734 216.6811 15.58299356  4108
FALCON 9 DEB            
1 56559U 23065BJ  23156.74900019  .00375612  64526-4  86858-3 0  9992
2 56559  43.0142 305.2888 0012957 138.6061 221.5800 15.96224063  4379
FALCON 9 DEB            
1 56560U 23065BK  23157.11592394  .00447939  90586-4  97173-3 0  9998
2 56560  43.0107 302.8624 0010534 148.0296 212.1222 15.97418714  4437
FALCON 9 DEB            
1 56561U 23065BL  23157.41152284  .00412912  79142-4  82954-3 0  9991
2 56561  43.0079 300.7525 0008975 123.3203 236.8535 15.98819671  4486
FALCON 9 DEB            
1 56562U 23065BM  23157.28821630  .00406120  76184-4  84413-3 0  9994
2 56562  43.0045 301.5468 0008488 127.1401 233.0254 15.98227337  4463
BEIDOU-3 G4             
1 56564U 23066A   23157.09702314 -.00000100  00000+0  00000+0 0  9997
2 56564   3.0662 289.3463 0006987 184.4346 335.4154  1.00271781   305
CZ-3B R/B               
1 56565U 23066B   23156.90371444  .00063631  66105-6  15375-2 0  9999
2 56565  28.3260 266.2641 7217207 191.7608 131.6072  2.40792963   489
